NORAD_CAT_ID,OBJECT_NAME,OBJECT_TYPE,EPOCH,MEAN_MOTION,ECCENTRICITY,INCLINATION,RA_OF_ASC_NODE,ARG_OF_PERICENTER,MEAN_ANOMALY,BSTAR,MEAN_MOTION_DOT,MEAN_MOTION_DDOT,TLE_LINE0,TLE_LINE1,TLE_LINE2,SEMIMAJOR_AXIS,PERIOD,APOGEE,PERIGEE,DECAYED
55916.0,STARLINK-5796,PAYLOAD,2023-10-08 14:03:57,14.98331293,0.0002894,70.0,11.2063,272.3447,87.738,0.00017141,1.953e-05,0.0,0 STARLINK-5796,1 55916U 23037C   23281.58607719  .00001953  00000-0  17141-3 0  9995,2 55916  70.0000  11.2063 0002894 272.3447  87.7380 14.98331293 31202,6950.189,96.107,574.065,570.043,0.0
55916.0,STARLINK-5796,PAYLOAD,2023-10-08 15:40:05,14.98333214,0.0002789,70.0003,11.0384,269.5685,90.5154,0.00017966,2.051e-05,0.0,0 STARLINK-5796,1 55916U 23037C   23281.65283569  .00002051  00000-0  17966-3 0  9991,2 55916  70.0003  11.0384 0002789 269.5685  90.5154 14.98333214 31558,6950.183,96.107,573.986,570.11,0.0
55916.0,STARLINK-5796,PAYLOAD,2023-10-09 09:17:34,14.98328302,0.0002632,70.0009,9.1872,269.2794,90.8064,6.7467e-05,7.12e-06,0.0,0 STARLINK-5796,1 55916U 23037C   23282.38720088  .00000712  00000-0  67467-4 0  9998,2 55916  70.0009   9.1872 0002632 269.2794  90.8064 14.98328302 31666,6950.198,96.107,573.892,570.234,0.0
55916.0,STARLINK-5796,PAYLOAD,2023-10-09 14:05:58,14.98332736,0.0002634,70.0008,8.6816,266.3352,93.7505,0.00011731,1.307e-05,0.0,0 STARLINK-5796,1 55916U 23037C   23282.58747688  .00001307  00000-0  11731-3 0  9998,2 55916  70.0008   8.6816 0002634 266.3352  93.7505 14.98332736 31351,6950.184,96.107,573.88,570.219,0.0
55916.0,STARLINK-5796,PAYLOAD,2023-10-09 15:42:05,14.98338387,0.0002739,70.0005,8.5131,267.9364,92.1482,9.1541e-05,1e-05,0.0,0 STARLINK-5796,1 55916U 23037C   23282.65423342  .00001000  00000-0  91541-4 0  9992,2 55916  70.0005   8.5131 0002739 267.9364  92.1482 14.98338387 31707,6950.167,96.106,573.936,570.128,0.0
55916.0,STARLINK-5796,PAYLOAD,2023-10-10 12:31:50,14.98347126,0.0002695,70.0022,6.3254,266.9265,93.1586,0.00041726,4.891e-05,0.0,0 STARLINK-5796,1 55916U 23037C   23283.52210707  .00004891  00000-0  41726-3 0  9998,2 55916  70.0022   6.3254 0002695 266.9265  93.1586 14.98347126 31491,6950.14,96.106,573.878,570.132,0.0
55916.0,STARLINK-5796,PAYLOAD,2023-10-10 15:44:05,14.98357025,0.0002436,70.002,5.989,265.229,94.8591,-0.00017403,-2.17e-05,0.0,0 STARLINK-5796,1 55916U 23037C   23283.65561967 -.00002170  00000-0 -17403-3 0  9994,2 55916  70.0020   5.9890 0002436 265.2290  94.8591 14.98357025 31856,6950.109,96.105,573.667,570.281,0.0
55916.0,STARLINK-5796,PAYLOAD,2023-10-11 10:57:43,14.98327706,0.0002935,70.0002,3.9699,268.8021,91.2801,0.00014537,1.642e-05,0.0,0 STARLINK-5796,1 55916U 23037C   23284.45675683  .00001642  00000-0  14537-3 0  9990,2 55916  70.0002   3.9699 0002935 268.8021  91.2801 14.98327706 31977,6950.2,96.107,574.105,570.025,0.0
55916.0,STARLINK-5796,PAYLOAD,2023-10-11 12:33:51,14.98327422,0.0002699,70.001,3.8011,263.7755,96.3097,6.7678e-05,7.15e-06,0.0,0 STARLINK-5796,1 55916U 23037C   23284.52351851  .00000715  00000-0  67678-4 0  9991,2 55916  70.0010   3.8011 0002699 263.7755  96.3097 14.98327422 31640,6950.201,96.107,573.942,570.19,0.0
55916.0,STARLINK-5796,PAYLOAD,2023-10-12 12:35:52,14.98334175,0.0002692,70.0007,1.2753,267.0938,92.9913,6.305e-05,6.59e-06,0.0,0 STARLINK-5796,1 55916U 23037C   23285.52491358  .00000659  00000-0  63050-4 0  9996,2 55916  70.0007   1.2753 0002692 267.0938  92.9913 14.98334175 31792,6950.18,96.107,573.916,570.174,0.0
55916.0,STARLINK-5796,PAYLOAD,2023-10-12 14:12:00,14.9834487,0.0002601,70.0004,1.1075,271.7618,88.3243,-5.5876e-05,-7.6e-06,0.0,0 STARLINK-5796,1 55916U 23037C   23285.59166780 -.00000760  00000-0 -55876-4 0  9993,2 55916  70.0004   1.1075 0002601 271.7618  88.3243 14.98344870 32140,6950.147,96.106,573.82,570.204,0.0
55916.0,STARLINK-5796,PAYLOAD,2023-10-13 12:37:53,14.98327624,0.0002659,70.0004,358.7508,269.0704,91.015,0.00017545,2.001e-05,0.0,0 STARLINK-5796,1 55916U 23037C   23286.52631567  .00002001  00000-0  17545-3 0  9995,2 55916  70.0004 358.7508 0002659 269.0704  91.0150 14.98327624 32282,6950.2,96.107,573.913,570.217,0.0
55916.0,STARLINK-5796,PAYLOAD,2023-10-13 14:14:01,14.98329388,0.0002626,70.0003,358.5823,267.4928,92.593,0.00018733,2.143e-05,0.0,0 STARLINK-5796,1 55916U 23037C   23286.59307442  .00002143  00000-0  18733-3 0  9991,2 55916  70.0003 358.5823 0002626 267.4928  92.5930 14.98329388 31957,6950.195,96.107,573.885,570.235,0.0
55916.0,STARLINK-5796,PAYLOAD,2023-10-13 22:14:41,14.98344592,0.0002841,70.0002,357.7406,273.6008,86.4826,2.3281e-05,1.85e-06,0.0,0 STARLINK-5796,1 55916U 23037C   23286.92686600  .00000185  00000-0  23281-4 0  9993,2 55916  70.0002 357.7406 0002841 273.6008  86.4826 14.98344592 32345,6950.148,96.106,573.987,570.038,0.0
55916.0,STARLINK-5796,PAYLOAD,2023-10-14 14:16:01,14.98339141,0.0002801,70.0002,356.057,267.9686,92.1153,0.00018371,2.1e-05,0.0,0 STARLINK-5796,1 55916U 23037C   23287.59446611  .00002100  00000-0  18371-3 0  9995,2 55916  70.0002 356.0570 0002801 267.9686  92.1153 14.98339141 32108,6950.165,96.106,573.976,570.083,0.0
55916.0,STARLINK-5796,PAYLOAD,2023-10-15 04:41:15,14.98329588,0.0002308,69.9998,354.5415,274.5208,85.5687,6.9242e-05,7.33e-06,0.0,0 STARLINK-5796,1 55916U 23037C   23288.19531564  .00000733  00000-0  69242-4 0  9998,2 55916  69.9998 354.5415 0002308 274.5208  85.5687 14.98329588 32535,6950.194,96.107,573.663,570.455,0.0
55916.0,STARLINK-5796,PAYLOAD,2023-10-15 11:05:48,14.98320875,0.0002805,69.9997,353.868,271.3688,88.715,-4.319e-05,-6.08e-06,0.0,0 STARLINK-5796,1 55916U 23037C   23288.46236382 -.00000608  00000-0 -43190-4 0  9995,2 55916  69.9997 353.8680 0002805 271.3688  88.7150 14.98320875 32573,6950.221,96.108,574.036,570.137,0.0
55916.0,STARLINK-5796,PAYLOAD,2023-10-15 14:18:04,14.98321219,0.0002797,69.9997,353.5314,271.4112,88.6727,-3.4158e-05,-5e-06,0.0,0 STARLINK-5796,1 55916U 23037C   23288.59588426 -.00000500  00000-0 -34158-4 0  9993,2 55916  69.9997 353.5314 0002797 271.4112  88.6727 14.98321219 32254,6950.22,96.108,574.029,570.141,0.0
55916.0,STARLINK-5796,PAYLOAD,2023-10-16 07:55:32,14.98336465,0.0002908,70.0005,351.6804,272.3968,87.6858,0.00027542,3.195e-05,0.0,0 STARLINK-5796,1 55916U 23037C   23289.33023395  .00003195  00000-0  27542-3 0  9994,2 55916  70.0005 351.6804 0002908 272.3968  87.6858 14.98336465 32706,6950.173,96.107,574.059,570.017,0.0
55916.0,STARLINK-5796,PAYLOAD,2023-10-16 14:20:04,14.98344282,0.00029,70.0011,351.0074,274.8353,85.2475,0.0010952,0.00013004,0.0,0 STARLINK-5796,1 55916U 23037C   23289.59727527  .00013004  00000-0  10952-2 0  9996,2 55916  70.0011 351.0074 0002900 274.8353  85.2475 14.98344282 32405,6950.149,96.106,574.029,569.998,0.0
55916.0,STARLINK-5796,PAYLOAD,2023-10-17 11:09:49,14.98336915,0.0002563,70.0014,348.8195,273.3099,86.7766,0.00029775,3.462e-05,0.0,0 STARLINK-5796,1 55916U 23037C   23290.46515417  .00003462  00000-0  29775-3 0  9998,2 55916  70.0014 348.8195 0002563 273.3099  86.7766 14.98336915 32876,6950.172,96.107,573.818,570.255,0.0
55916.0,STARLINK-5796,PAYLOAD,2023-10-18 03:11:09,14.98338823,0.0002639,70.0016,347.1363,273.3738,86.7119,0.00014843,1.679e-05,0.0,0 STARLINK-5796,1 55916U 23037C   23291.13275088  .00001679  00000-0  14843-3 0  9998,2 55916  70.0016 347.1363 0002639 273.3738  86.7119 14.98338823 32637,6950.166,96.106,573.865,570.196,0.0
55916.0,STARLINK-5796,PAYLOAD,2023-10-18 11:11:50,14.98331106,0.0001959,70.0032,346.2971,248.4534,111.6417,5.1853e-05,5.26e-06,0.0,0 STARLINK-5796,1 55916U 23037C   23291.46655502  .00000526  00000-0  51853-4 0  9990,2 55916  70.0032 346.2971 0001959 248.4534 111.6417 14.98331106 33021,6950.189,96.107,573.416,570.693,0.0
55916.0,STARLINK-5796,PAYLOAD,2023-10-18 20:48:38,14.98339057,0.0002161,70.0026,345.287,263.5561,96.5352,-1.2585e-05,-2.43e-06,0.0,0 STARLINK-5796,1 55916U 23037C   23291.86711023 -.00000243  00000-0 -12585-4 0  9992,2 55916  70.0026 345.2870 0002161 263.5561  96.5352 14.98339057 32745,6950.165,96.106,573.532,570.528,0.0
55916.0,STARLINK-5796,PAYLOAD,2023-10-19 11:13:50,14.9834163,0.0002414,70.0011,343.7692,257.3322,102.7567,0.00028482,3.308e-05,0.0,0 STARLINK-5796,1 55916U 23037C   23292.46794629  .00003308  00000-0  28482-3 0  9997,2 55916  70.0011 343.7692 0002414 257.3322 102.7567 14.98341630 33177,6950.157,96.106,573.7,570.344,0.0
55916.0,STARLINK-5796,PAYLOAD,2023-10-19 20:50:38,14.98352619,0.0002715,70.0005,342.7567,282.3525,77.733,-0.00031303,-3.828e-05,0.0,0 STARLINK-5796,1 55916U 23037C   23292.86849671 -.00003828  00000-0 -31303-3 0  9994,2 55916  70.0005 342.7567 0002715 282.3525  77.7330 14.98352619 32893,6950.123,96.106,573.875,570.101,0.0
55916.0,STARLINK-5796,PAYLOAD,2023-10-20 04:51:19,14.98323798,0.0002923,70.0007,341.9174,273.5412,86.5412,-0.00015997,-2.001e-05,0.0,0 STARLINK-5796,1 55916U 23037C   23293.20231085 -.00002001  00000-0 -15997-3 0  9990,2 55916  70.0007 341.9174 0002923 273.5412  86.5412 14.98323798 33287,6950.212,96.107,574.109,570.046,0.0
55916.0,STARLINK-5796,PAYLOAD,2023-10-20 11:15:51,14.98327289,0.0002838,70.0006,341.2437,274.8433,85.2402,-3.8391e-05,-5.51e-06,0.0,0 STARLINK-5796,1 55916U 23037C   23293.46935069 -.00000551  00000-0 -38391-4 0  9993,2 55916  70.0006 341.2437 0002838 274.8433  85.2402 14.98327289 32983,6950.201,96.107,574.039,570.094,0.0
55916.0,STARLINK-5796,PAYLOAD,2023-10-21 11:17:52,14.98332,0.0002923,70.0002,338.717,273.679,86.4035,0.00020395,2.341e-05,0.0,0 STARLINK-5796,1 55916U 23037C   23294.47075163  .00002341  00000-0  20395-3 0  9996,2 55916  70.0002 338.7170 0002923 273.6790  86.4035 14.98332000 33479,6950.187,96.107,574.083,570.02,0.0
55916.0,STARLINK-5796,PAYLOAD,2023-10-21 20:54:41,14.98330406,0.0002849,70.0008,337.7081,273.2267,86.8566,0.00032272,3.76e-05,0.0,0 STARLINK-5796,1 55916U 23037C   23294.87131366  .00003760  00000-0  32272-3 0  9991,2 55916  70.0008 337.7081 0002849 273.2267  86.8566 14.98330406 33197,6950.192,96.107,574.037,570.077,0.0
